NORAD_CAT_ID,OBJECT_NAME,OBJECT_TYPE,EPOCH,MEAN_MOTION,ECCENTRICITY,INCLINATION,RA_OF_ASC_NODE,ARG_OF_PERICENTER,MEAN_ANOMALY,BSTAR,MEAN_MOTION_DOT,MEAN_MOTION_DDOT,TLE_LINE0,TLE_LINE1,TLE_LINE2,SEMIMAJOR_AXIS,PERIOD,APOGEE,PERIGEE,DECAYED
56771.0,STARLINK-6339,PAYLOAD,2023-09-15 23:39:58,15.69916014,0.0003262,69.9987,110.4726,264.9269,95.1554,1.2181e-05,1.252e-05,0.0,0 STARLINK-6339,1 56771U 23078E   23258.98609153  .00001252  00000-0  12181-4 0  9994,2 56771  69.9987 110.4726 0003262 264.9269  95.1554 15.69916014 16950,6737.274,91.725,361.337,356.942,0.0
56771.0,STARLINK-6339,PAYLOAD,2023-09-17 00:07:59,15.69922946,0.0003598,69.9976,107.6064,261.726,98.3528,1.526e-05,1.622e-05,0.0,0 STARLINK-6339,1 56771U 23078E   23260.00555432  .00001622  00000-0  15260-4 0  9992,2 56771  69.9976 107.6064 0003598 261.7260  98.3528 15.69922946 17373,6737.254,91.724,361.544,356.695,0.0
56771.0,STARLINK-6339,PAYLOAD,2023-09-17 23:04:16,15.69919282,0.0003475,69.9987,104.9176,270.6839,89.3958,1.2468e-05,1.286e-05,0.0,0 STARLINK-6339,1 56771U 23078E   23260.96130726  .00001286  00000-0  12468-4 0  9995,2 56771  69.9987 104.9176 0003475 270.6839  89.3958 15.69919282 17527,6737.265,91.724,361.471,356.789,0.0
56771.0,STARLINK-6339,PAYLOAD,2023-09-18 14:21:48,15.69917059,0.00035,69.9977,103.1264,274.3883,85.6912,2.5086e-05,2.804e-05,0.0,0 STARLINK-6339,1 56771U 23078E   23261.59847371  .00002804  00000-0  25086-4 0  9993,2 56771  69.9977 103.1264 0003500 274.3883  85.6912 15.69917059 17365,6737.271,91.725,361.494,356.778,0.0
56771.0,STARLINK-6339,PAYLOAD,2023-09-18 17:25:18,15.6991787,0.0003504,69.9976,102.7688,273.7344,86.3451,2.1596e-05,2.384e-05,0.0,0 STARLINK-6339,1 56771U 23078E   23261.72590789  .00002384  00000-0  21596-4 0  9991,2 56771  69.9976 102.7688 0003504 273.7344  86.3451 15.69917870 17387,6737.269,91.725,361.495,356.773,0.0
56771.0,STARLINK-6339,PAYLOAD,2023-09-18 23:32:18,15.69933417,0.0003814,69.9977,102.0518,259.3569,100.7197,3.4958e-05,3.994e-05,0.0,0 STARLINK-6339,1 56771U 23078E   23261.98076655  .00003994  00000-0  34958-4 0  9994,2 56771  69.9977 102.0518 0003814 259.3569 100.7197 15.69933417 17682,6737.224,91.724,361.659,356.52,0.0
56771.0,STARLINK-6339,PAYLOAD,2023-09-19 19:25:06,15.69919173,0.0003567,69.9977,99.725,274.3511,85.7277,-2.071e-05,-2.702e-05,0.0,0 STARLINK-6339,1 56771U 23078E   23262.80909877 -.00002702  00000-0 -20710-4 0  9996,2 56771  69.9977  99.7250 0003567 274.3511  85.7277 15.69919173 17815,6737.265,91.724,361.533,356.727,0.0
56771.0,STARLINK-6339,PAYLOAD,2023-09-20 13:46:07,15.69917834,0.0003164,69.9977,97.5728,276.236,83.8476,1.1223e-05,1.137e-05,0.0,0 STARLINK-6339,1 56771U 23078E   23263.57369662  .00001137  00000-0  11223-4 0  9991,2 56771  69.9977  97.5728 0003164 276.2360  83.8476 15.69917834 17673,6737.269,91.725,361.266,357.002,0.0
56771.0,STARLINK-6339,PAYLOAD,2023-09-20 16:49:37,15.69917469,0.0003212,69.9983,97.2142,274.8602,85.2226,1.3732e-05,1.438e-05,0.0,0 STARLINK-6339,1 56771U 23078E   23263.70113001  .00001438  00000-0  13732-4 0  9991,2 56771  69.9983  97.2142 0003212 274.8602  85.2226 15.69917469 17958,6737.27,91.725,361.299,356.971,0.0
56771.0,STARLINK-6339,PAYLOAD,2023-09-20 21:24:51,15.69936121,0.000338,69.9976,96.677,266.6821,93.3988,2.7537e-05,3.101e-05,0.0,0 STARLINK-6339,1 56771U 23078E   23263.89226446  .00003101  00000-0  27537-4 0  9996,2 56771  69.9976  96.6770 0003380 266.6821  93.3988 15.69936121 17724,6737.217,91.723,361.359,356.805,0.0
56771.0,STARLINK-6339,PAYLOAD,2023-09-20 22:56:38,15.69905742,0.0002932,69.9979,96.497,269.7517,90.3343,-1.9617e-06,-4.48e-06,0.0,0 STARLINK-6339,1 56771U 23078E   23263.95600618 -.00000448  00000-0 -19617-5 0  9994,2 56771  69.9979  96.4970 0002932 269.7517  90.3343 15.69905742 17991,6737.304,91.725,361.144,357.193,0.0
56771.0,STARLINK-6339,PAYLOAD,2023-09-21 18:49:24,15.69911221,0.0003474,69.9972,94.1692,268.9035,91.1763,1.4624e-05,1.545e-05,0.0,0 STARLINK-6339,1 56771U 23078E   23264.78431415  .00001545  00000-0  14624-4 0  9992,2 56771  69.9972  94.1692 0003474 268.9035  91.1763 15.69911221 18128,6737.288,91.725,361.494,356.812,0.0
56771.0,STARLINK-6339,PAYLOAD,2023-09-21 20:21:09,15.69914072,0.0003323,69.9965,93.9888,266.019,94.0626,1.5139e-05,1.607e-05,0.0,0 STARLINK-6339,1 56771U 23078E   23264.84802923  .00001607  00000-0  15139-4 0  9996,2 56771  69.9965  93.9888 0003323 266.0190  94.0626 15.69914072 17876,6737.28,91.725,361.384,356.906,0.0
56771.0,STARLINK-6339,PAYLOAD,2023-09-22 13:10:24,15.69938173,0.0003387,69.9966,92.0184,264.5392,95.5417,1.8441e-05,2.006e-05,0.0,0 STARLINK-6339,1 56771U 23078E   23265.54889803  .00002006  00000-0  18441-4 0  9999,2 56771  69.9966  92.0184 0003387 264.5392  95.5417 15.69938173 17987,6737.211,91.723,361.358,356.794,0.0
56771.0,STARLINK-6339,PAYLOAD,2023-09-22 20:49:12,15.69911662,0.0003484,69.9971,91.123,267.7068,92.3729,-1.3648e-05,-1.853e-05,0.0,0 STARLINK-6339,1 56771U 23078E   23265.86750620 -.00001853  00000-0 -13648-4 0  9993,2 56771  69.9971  91.1230 0003484 267.7068  92.3729 15.69911662 18030,6737.287,91.725,361.499,356.804,0.0
56771.0,STARLINK-6339,PAYLOAD,2023-09-22 22:20:57,15.69913988,0.0003345,69.9979,90.9432,271.4237,88.6575,-5.211e-06,-8.39e-06,0.0,0 STARLINK-6339,1 56771U 23078E   23265.93122063 -.00000839  00000-0 -52110-5 0  9996,2 56771  69.9979  90.9432 0003345 271.4237  88.6575 15.69913988 18305,6737.28,91.725,361.399,356.891,0.0
56771.0,STARLINK-6339,PAYLOAD,2023-09-23 12:06:42,15.69917109,0.0003553,69.997,89.3327,266.976,93.1029,1.0885e-05,1.096e-05,0.0,0 STARLINK-6339,1 56771U 23078E   23266.50466424  .00001096  00000-0  10885-4 0  9998,2 56771  69.9970  89.3327 0003553 266.9760  93.1029 15.69917109 18395,6737.271,91.725,361.53,356.742,0.0
56771.0,STARLINK-6339,PAYLOAD,2023-09-23 13:38:28,15.69917839,0.0003552,69.9972,89.1534,267.9219,92.157,1.1821e-05,1.208e-05,0.0,0 STARLINK-6339,1 56771U 23078E   23266.56838047  .00001208  00000-0  11821-4 0  9994,2 56771  69.9972  89.1534 0003552 267.9219  92.1570 15.69917839 18147,6737.269,91.725,361.527,356.741,0.0
56771.0,STARLINK-6339,PAYLOAD,2023-09-24 14:06:29,15.699326,0.0002937,69.9983,86.2866,268.5994,91.4865,1.1812e-05,1.208e-05,0.0,0 STARLINK-6339,1 56771U 23078E   23267.58783963  .00001208  00000-0  11812-4 0  9993,2 56771  69.9983  86.2866 0002937 268.5994  91.4865 15.69932600 18308,6737.227,91.724,361.071,357.113,0.0
56771.0,STARLINK-6339,PAYLOAD,2023-09-24 15:38:14,15.69932415,0.000314,69.9973,86.1069,240.8961,119.192,3.2791e-06,1.82e-06,0.0,0 STARLINK-6339,1 56771U 23078E   23267.65155573  .00000182  00000-0  32791-5 0  9991,2 56771  69.9973  86.1069 0003140 240.8961 119.1920 15.69932415 18578,6737.227,91.724,361.208,356.977,0.0
56771.0,STARLINK-6339,PAYLOAD,2023-09-24 21:45:16,15.69916748,0.0003284,69.997,85.3908,265.1712,94.9109,-4.1684e-06,-7.14e-06,0.0,0 STARLINK-6339,1 56771U 23078E   23267.90643659 -.00000714  00000-0 -41684-5 0  9990,2 56771  69.9970  85.3908 0003284 265.1712  94.9109 15.69916748 18357,6737.272,91.725,361.35,356.925,0.0
56771.0,STARLINK-6339,PAYLOAD,2023-09-25 05:24:01,15.69926975,0.0003724,69.9969,84.4953,261.8392,98.2381,1.7647e-05,1.91e-05,0.0,0 STARLINK-6339,1 56771U 23078E   23268.22501258  .00001910  00000-0  17647-4 0  9992,2 56771  69.9969  84.4953 0003724 261.8392  98.2381 15.69926975 18667,6737.243,91.724,361.617,356.599,0.0
56771.0,STARLINK-6339,PAYLOAD,2023-09-25 13:02:45,15.69946436,0.0003398,69.9974,83.599,262.8079,97.273,3.3426e-05,3.812e-05,0.0,0 STARLINK-6339,1 56771U 23078E   23268.54358032  .00003812  00000-0  33426-4 0  9993,2 56771  69.9974  83.5990 0003398 262.8079  97.2730 15.69946436 18452,6737.187,91.723,361.342,356.763,0.0
56771.0,STARLINK-6339,PAYLOAD,2023-09-25 19:09:46,15.69938273,0.0004045,69.9971,82.8805,259.2689,100.8052,1.2913e-05,1.341e-05,0.0,0 STARLINK-6339,1 56771U 23078E   23268.79845216  .00001341  00000-0  12913-4 0  9998,2 56771  69.9971  82.8805 0004045 259.2689 100.8052 15.69938273 18754,6737.211,91.723,361.801,356.35,0.0
56771.0,STARLINK-6339,PAYLOAD,2023-09-25 20:41:32,15.69917446,0.000386,69.997,82.7045,268.8181,91.2573,-4.5705e-07,-2.68e-06,0.0,0 STARLINK-6339,1 56771U 23078E   23268.86218604 -.00000268  00000-0 -45705-6 0  9997,2 56771  69.9970  82.7045 0003860 268.8181  91.2573 15.69917446 18508,6737.27,91.725,361.736,356.535,0.0
56771.0,STARLINK-6339,PAYLOAD,2023-09-26 15:02:34,15.69924422,0.0004066,69.9977,80.5533,267.337,92.736,-3.5457e-06,-6.4e-06,0.0,0 STARLINK-6339,1 56771U 23078E   23269.62678460 -.00000640  00000-0 -35457-5 0  9998,2 56771  69.9977  80.5533 0004066 267.3370  92.7360 15.69924422 18621,6737.25,91.724,361.855,356.376,0.0
56771.0,STARLINK-6339,PAYLOAD,2023-09-26 21:09:34,15.69932266,0.0003521,69.9986,79.8356,265.2318,94.8475,8.1171e-06,7.64e-06,0.0,0 STARLINK-6339,1 56771U 23078E   23269.88164450  .00000764  00000-0  81171-5 0  9994,2 56771  69.9986  79.8356 0003521 265.2318  94.8475 15.69932266 18668,6737.228,91.724,361.465,356.721,0.0
56771.0,STARLINK-6339,PAYLOAD,2023-09-27 12:27:05,15.69922894,0.0003668,69.9987,78.0465,260.1803,99.8979,-2.8024e-05,-3.581e-05,0.0,0 STARLINK-6339,1 56771U 23078E   23270.51881811 -.00003581  00000-0 -28024-4 0  9992,2 56771  69.9987  78.0465 0003668 260.1803  99.8979 15.69922894 18767,6737.255,91.724,361.591,356.648,0.0
56771.0,STARLINK-6339,PAYLOAD,2023-09-27 13:58:51,15.69920089,0.0003931,69.999,77.8672,258.4878,101.5876,-1.2042e-05,-1.661e-05,0.0,0 STARLINK-6339,1 56771U 23078E   23270.58253590 -.00001661  00000-0 -12042-4 0  9996,2 56771  69.9990  77.8672 0003931 258.4878 101.5876 15.69920089 19035,6737.263,91.724,361.776,356.479,0.0
56771.0,STARLINK-6339,PAYLOAD,2023-09-27 21:37:36,15.69936046,0.0003443,69.9999,76.9708,254.5871,105.4944,4.3305e-07,-1.61e-06,0.0,0 STARLINK-6339,1 56771U 23078E   23270.90111167 -.00000161  00000-0  43305-6 0  9996,2 56771  69.9999  76.9708 0003443 254.5871 105.4944 15.69936046 19086,6737.217,91.723,361.402,356.762,0.0
